{
  "type": "FeatureCollection",
  "features": [
    {
      "type": "Feature",
      "properties": {
        "norad_id": 43581,
        "name": "BEIDOU-3 M5 (C23)",
        "group": "gnss",
        "lat": 39.739518479579104,
        "lon": -133.96287765444546,
        "alt_km": 21520.685567117336,
        "timestamp": "2025-12-02T15:49:07.431882+00:00",
        "meta_object_name": "BEIDOU-3 M5 (C23)",
        "meta_object_id": "2018-062A",
        "meta_epoch": "2025-11-30T23:17:32.661024",
        "meta_mean_motion": 1.8622853,
        "meta_eccentricity": 0.0002124,
        "meta_inclination": 54.0891,
        "meta_ra_of_asc_node": 189.0442,
        "meta_arg_of_pericenter": 349.7703,
        "meta_mean_anomaly": 10.3183,
        "meta_ephemeris_type": 0,
        "meta_classification_type": "U",
        "meta_norad_cat_id": 43581,
        "meta_element_set_no": 999,
        "meta_rev_at_epoch": 4994,
        "meta_bstar": 0,
        "meta_mean_motion_dot": 1.17e-06,
        "meta_mean_motion_ddot": 0,
        "tle_line1": "1 43581U 18062A   25334.97051691  .00000117  00000+0  00000+0 0  9990",
        "tle_line2": "2 43581  54.0891 189.0442 0002124 349.7703  10.3183  1.86228530 49947"
      },
      "geometry": {
        "type": "Point",
        "coordinates": [
          -133.96287765444546,
          39.739518479579104
        ]
      }
    },
    {
      "type": "Feature",
      "properties": {
        "norad_id": 43582,
        "name": "BEIDOU-3 M6 (C24)",
        "group": "gnss",
        "lat": 28.370705812517617,
        "lon": -14.050553193451922,
        "alt_km": 21527.87373518016,
        "timestamp": "2025-12-02T15:49:07.431894+00:00",
        "meta_object_name": "BEIDOU-3 M6 (C24)",
        "meta_object_id": "2018-062B",
        "meta_epoch": "2025-11-29T18:14:01.707936",
        "meta_mean_motion": 1.86229617,
        "meta_eccentricity": 0.00076529,
        "meta_inclination": 54.0888,
        "meta_ra_of_asc_node": 189.0746,
        "meta_arg_of_pericenter": 45.4041,
        "meta_mean_anomaly": 314.7474,
        "meta_ephemeris_type": 0,
        "meta_classification_type": "U",
        "meta_norad_cat_id": 43582,
        "meta_element_set_no": 999,
        "meta_rev_at_epoch": 4992,
        "meta_bstar": 0,
        "meta_mean_motion_dot": 1.07e-06,
        "meta_mean_motion_ddot": 0,
        "tle_line1": "1 43582U 18062B   25333.75974199  .00000107  00000+0  00000+0 0  9992",
        "tle_line2": "2 43582  54.0888 189.0746 0007652  45.4041 314.7474  1.86229617 49926"
      },
      "geometry": {
        "type": "Point",
        "coordinates": [
          -14.050553193451922,
          28.370705812517617
        ]
      }
    },
    {
      "type": "Feature",
      "properties": {
        "norad_id": 43602,
        "name": "BEIDOU-3 M12 (C26)",
        "group": "gnss",
        "lat": -4.7056045029881,
        "lon": 11.121605309726627,
        "alt_km": 21550.24513121446,
        "timestamp": "2025-12-02T15:49:07.431905+00:00",
        "meta_object_name": "BEIDOU-3 M12 (C26)",
        "meta_object_id": "2018-067A",
        "meta_epoch": "2025-12-01T20:17:11.919840",
        "meta_mean_motion": 1.86227624,
        "meta_eccentricity": 0.00091432,
        "meta_inclination": 54.1831,
        "meta_ra_of_asc_node": 187.7331,
        "meta_arg_of_pericenter": 40.4315,
        "meta_mean_anomaly": 319.7307,
        "meta_ephemeris_type": 0,
        "meta_classification_type": "U",
        "meta_norad_cat_id": 43602,
        "meta_element_set_no": 999,
        "meta_rev_at_epoch": 4944,
        "meta_bstar": 0,
        "meta_mean_motion_dot": 1.22e-06,
        "meta_mean_motion_ddot": 0,
        "tle_line1": "1 43602U 18067A   25335.84527685  .00000122  00000+0  00000+0 0  9993",
        "tle_line2": "2 43602  54.1831 187.7331 0009143  40.4315 319.7307  1.86227624 49442"
      },
      "geometry": {
        "type": "Point",
        "coordinates": [
          11.121605309726627,
          -4.7056045029881
        ]
      }
    },
    {
      "type": "Feature",
      "properties": {
        "norad_id": 43603,
        "name": "BEIDOU-3 M11 (C25)",
        "group": "gnss",
        "lat": 53.7890083664645,
        "lon": -72.83555114866282,
        "alt_km": 21514.316894010804,
        "timestamp": "2025-12-02T15:49:07.431916+00:00",
        "meta_object_name": "BEIDOU-3 M11 (C25)",
        "meta_object_id": "2018-067B",
        "meta_epoch": "2025-11-29T19:57:56.721600",
        "meta_mean_motion": 1.86227148,
        "meta_eccentricity": 0.00055574,
        "meta_inclination": 54.1805,
        "meta_ra_of_asc_node": 187.7656,
        "meta_arg_of_pericenter": 35.6802,
        "meta_mean_anomaly": 324.4454,
        "meta_ephemeris_type": 0,
        "meta_classification_type": "U",
        "meta_norad_cat_id": 43603,
        "meta_element_set_no": 999,
        "meta_rev_at_epoch": 4943,
        "meta_bstar": 0,
        "meta_mean_motion_dot": 1.1e-06,
        "meta_mean_motion_ddot": 0,
        "tle_line1": "1 43603U 18067B   25333.83190650  .00000110  00000+0  00000+0 0  9996",
        "tle_line2": "2 43603  54.1805 187.7656 0005557  35.6802 324.4454  1.86227148 49432"
      },
      "geometry": {
        "type": "Point",
        "coordinates": [
          -72.83555114866282,
          53.7890083664645
        ]
      }
    },
    {
      "type": "Feature",
      "properties": {
        "norad_id": 43622,
        "name": "BEIDOU-3 M13 (C32)",
        "group": "gnss",
        "lat": 43.32917512263656,
        "lon": -149.53088287115446,
        "alt_km": 21538.39252664846,
        "timestamp": "2025-12-02T15:49:07.431927+00:00",
        "meta_object_name": "BEIDOU-3 M13 (C32)",
        "meta_object_id": "2018-072A",
        "meta_epoch": "2025-12-01T22:28:14.583360",
        "meta_mean_motion": 1.8623073,
        "meta_eccentricity": 0.00055911,
        "meta_inclination": 56.4497,
        "meta_ra_of_asc_node": 69.1783,
        "meta_arg_of_pericenter": 298.7186,
        "meta_mean_anomaly": 61.2282,
        "meta_ephemeris_type": 0,
        "meta_classification_type": "U",
        "meta_norad_cat_id": 43622,
        "meta_element_set_no": 999,
        "meta_rev_at_epoch": 4898,
        "meta_bstar": 0,
        "meta_mean_motion_dot": -4.4e-07,
        "meta_mean_motion_ddot": 0,
        "tle_line1": "1 43622U 18072A   25335.93627990 -.00000044  00000+0  00000+0 0  9995",
        "tle_line2": "2 43622  56.4497  69.1783 0005591 298.7186  61.2282  1.86230730 48989"
      },
      "geometry": {
        "type": "Point",
        "coordinates": [
          -149.53088287115446,
          43.32917512263656
        ]
      }
    },
    {
      "type": "Feature",
      "properties": {
        "norad_id": 43623,
        "name": "BEIDOU-3 M14 (C33)",
        "group": "gnss",
        "lat": -28.426066266370114,
        "lon": -89.83656334628152,
        "alt_km": 21536.184391712803,
        "timestamp": "2025-12-02T15:49:07.431938+00:00",
        "meta_object_name": "BEIDOU-3 M14 (C33)",
        "meta_object_id": "2018-072B",
        "meta_epoch": "2025-12-01T19:14:30.967584",
        "meta_mean_motion": 1.86230723,
        "meta_eccentricity": 0.00030316,
        "meta_inclination": 56.4513,
        "meta_ra_of_asc_node": 69.1766,
        "meta_arg_of_pericenter": 336.0964,
        "meta_mean_anomaly": 23.8927,
        "meta_ephemeris_type": 0,
        "meta_classification_type": "U",
        "meta_norad_cat_id": 43623,
        "meta_element_set_no": 999,
        "meta_rev_at_epoch": 4897,
        "meta_bstar": 0,
        "meta_mean_motion_dot": -4.3e-07,
        "meta_mean_motion_ddot": 0,
        "tle_line1": "1 43623U 18072B   25335.80174731 -.00000043  00000+0  00000+0 0  9991",
        "tle_line2": "2 43623  56.4513  69.1766 0003031 336.0964  23.8927  1.86230723 48978"
      },
      "geometry": {
        "type": "Point",
        "coordinates": [
          -89.83656334628152,
          -28.426066266370114
        ]
      }
    },
    {
      "type": "Feature",
      "properties": {
        "norad_id": 43647,
        "name": "BEIDOU-3 M16 (C35)",
        "group": "gnss",
        "lat": 50.11274588796407,
        "lon": 67.4315687680347,
        "alt_km": 21522.20896289329,
        "timestamp": "2025-12-02T15:49:07.431950+00:00",
        "meta_object_name": "BEIDOU-3 M16 (C35)",
        "meta_object_id": "2018-078A",
        "meta_epoch": "2025-12-01T23:02:01.408992",
        "meta_mean_motion": 1.86232129,
        "meta_eccentricity": 0.00069466,
        "meta_inclination": 54.272,
        "meta_ra_of_asc_node": 306.8982,
        "meta_arg_of_pericenter": 18.3506,
        "meta_mean_anomaly": 341.6639,
        "meta_ephemeris_type": 0,
        "meta_classification_type": "U",
        "meta_norad_cat_id": 43647,
        "meta_element_set_no": 999,
        "meta_rev_at_epoch": 4848,
        "meta_bstar": 0,
        "meta_mean_motion_dot": -6.1e-07,
        "meta_mean_motion_ddot": 0,
        "tle_line1": "1 43647U 18078A   25335.95973853 -.00000061  00000+0  00000+0 0  9991",
        "tle_line2": "2 43647  54.2720 306.8982 0006946  18.3506 341.6639  1.86232129 48480"
      },
      "geometry": {
        "type": "Point",
        "coordinates": [
          67.4315687680347,
          50.11274588796407
        ]
      }
    }
  ]
}